OBJECT_NAME,OBJECT_ID,EPOCH,MEAN_MOTION,ECCENTRICITY,INCLINATION,RA_OF_ASC_NODE,ARG_OF_PERICENTER,MEAN_ANOMALY,EPHEMERIS_TYPE,CLASSIFICATION_TYPE,NORAD_CAT_ID,ELEMENT_SET_NO,REV_AT_EPOCH,BSTAR,MEAN_MOTION_DOT,MEAN_MOTION_DDOT
SL-14 R/B,1990-018B,2026-06-27T08:09:47.505888,14.82222712,.0017721,82.5218,120.6183,91.0804,269.2441,0,U,20511,999,93882,.46286E-4,.394E-5,0
HST,1990-037B,2026-06-27T05:57:27.546336,15.30861955,.0001399,28.4733,11.8084,264.2756,95.7680,0,U,20580,999,79011,.22534E-3,.7152E-4,0
SL-16 R/B,1990-046B,2026-06-27T09:51:03.763008,14.15026187,.0012674,70.9999,67.4782,145.5028,214.6920,0,U,20625,999,86391,-.89212E-4,-.221E-5,0
COSMOS 2084,1990-055A,2026-06-27T11:38:41.718912,15.06157487,.0006157,62.7909,320.9404,296.7555,63.2915,0,U,20663,999,95285,.15862E-3,.2132E-4,0
SL-6 R/B(2),1990-055D,2026-06-27T11:42:18.626112,15.04032359,.0042348,62.7809,240.3243,6.5459,353.6184,0,U,20666,999,95470,.10941E-3,.134E-4,0
SL-8 R/B,1990-078B,2026-06-27T10:50:54.306816,14.92818261,.0348038,82.9008,152.3666,3.8494,356.5273,0,U,20775,999,82565,.78166E-3,.27663E-3,0
SL-8 R/B,1991-006B,2026-06-27T13:05:30.711840,13.77506814,.0023875,82.9425,88.3284,87.2293,85.9449,0,U,21088,999,77919,.4442E-4,.6E-6,0
OKEAN-3,1991-039A,2026-06-27T12:11:47.291136,15.05371872,.0012848,82.5164,230.3738,319.5513,40.4758,0,U,21397,999,88155,.1384E-3,.2014E-4,0
COSMOS 2151,1991-042A,2026-06-27T12:42:54.915264,15.00466502,.0013453,82.4965,337.6986,52.7098,307.5350,0,U,21422,999,87966,.13704E-3,.1754E-4,0
SL-14 R/B,1991-042B,2026-06-27T08:22:16.455648,14.81908480,.001561,82.4936,117.3668,238.1668,121.8027,0,U,21423,999,86931,.40802E-4,.347E-5,0
ERS-1,1991-050A,2026-06-27T12:30:51.399072,14.39523030,.0030885,98.7794,199.4720,235.1664,124.6617,0,U,21574,999,83153,.10532E-3,.284E-5,0
ARIANE 40 R/B,1991-050F,2026-06-27T12:28:26.107968,14.42962630,.000448,98.1871,226.5340,99.1604,261.0093,0,U,21610,999,83483,.90987E-4,.263E-5,0
INTERCOSMOS 25,1991-086A,2026-06-27T04:21:14.114304,12.12212787,.14839791,82.6039,243.7621,240.8117,103.6607,0,U,21819,999,50995,.16569829E-3,.835E-5,0
SL-8 R/B,1992-008B,2026-06-27T12:50:26.151360,13.75979636,.0034503,82.9259,186.0935,185.3693,288.7874,0,U,21876,999,72452,.13981E-3,.151E-5,0
SL-8 R/B,1992-020B,2026-06-27T05:58:45.846336,13.75549849,.0029019,82.9304,72.3838,354.8490,123.6166,0,U,21938,999,71619,.46948E-4,.6E-6,0
USA 81,1992-023A,2026-06-27T04:39:58.675104,14.32400652,.00026304,85.0070,68.2317,76.1909,283.9576,0,U,21949,999,11046,.4988223E-4,.155E-5,0
COSMOS 2219,1992-076A,2026-06-27T09:02:36.090240,14.14106408,.0017124,71.0599,148.7703,26.8578,333.3427,0,U,22219,999,73388,.17338E-3,.284E-5,0
SL-16 R/B,1992-076B,2026-06-27T11:30:54.116064,14.16875595,.0014996,71.0013,317.0985,285.1410,142.3418,0,U,22220,999,73738,-.44839E-4,-.138E-5,0
COSMOS 2221,1992-080A,2026-06-27T12:03:52.756416,14.96558450,.0014218,82.5031,173.8811,176.5219,183.6105,0,U,22236,999,79721,.12357E-3,.1434E-4,0
SL-16 R/B,1992-093B,2026-06-27T06:39:37.862784,14.15461319,.0003433,71.0206,134.2086,169.1454,190.9743,0,U,22285,999,72866,.13775E-3,.221E-5,0
COSMOS 2228,1992-094A,2026-06-27T10:39:23.346144,14.97621852,.0016081,82.5180,132.2182,295.0007,64.9545,0,U,22286,999,79248,.13973E-3,.1663E-4,0
SL-16 R/B,1993-016B,2026-06-27T11:17:45.050784,14.15315602,.0009513,71.0087,344.6075,168.8842,191.2493,0,U,22566,999,71770,-.64958E-4,-.174E-5,0
COSMOS 2242,1993-024A,2026-06-27T11:24:00.457056,14.96933317,.0014606,82.5183,161.6998,299.0807,60.8952,0,U,22626,999,79681,.14266E-3,.1667E-4,0
SL-16 R/B,1993-059B,2026-06-27T07:12:50.176800,14.17247427,.0015675,70.9892,139.9763,37.1987,323.0220,0,U,22803,999,69506,.75615E-4,.105E-5,0
ARIANE 40 R/B,1993-061H,2026-06-27T11:16:58.735200,14.32911694,.0009849,98.4816,245.1134,324.5380,35.5149,0,U,22830,999,70982,.76606E-4,.166E-5,0
COSMOS 2278,1994-023A,2026-06-27T12:02:26.834208,14.14398110,.0010439,71.0551,305.3445,231.3383,128.6806,0,U,23087,999,66033,-.69992E-4,-.181E-5,0
SL-16 R/B,1994-023B,2026-06-27T11:58:22.075968,14.15027511,.0002035,70.9985,200.2760,178.2432,181.8698,0,U,23088,999,66162,-.31695E-4,-.109E-5,0
SL-16 R/B,1994-074B,2026-06-27T08:24:16.115328,14.79510451,.0005646,97.6988,204.6477,212.8886,157.7440,0,U,23343,999,70346,.63366E-4,.425E-5,0
SL-16 R/B,1994-077B,2026-06-27T07:06:41.118336,14.15577458,.000349,70.9829,121.8948,319.0439,41.0421,0,U,23405,999,63174,.85396E-4,.119E-5,0
ARIANE 40+ R/B,1995-021B,2026-06-27T11:14:35.647296,14.39838637,.0007117,98.4408,248.3948,163.2848,207.2711,0,U,23561,999,63504,.91682E-4,.244E-5,0
SL-16 R/B,1995-058B,2026-06-27T12:29:36.555072,14.15511964,.0014415,71.0229,309.6625,306.2232,53.7558,0,U,23705,999,58339,-.35277E-4,-.117E-5,0
