SL-14 R/B               
1 20511U 90018B   26178.34013317  .00000394  00000+0  46286-4 0  9998
2 20511  82.5218 120.6183 0017721  91.0804 269.2441 14.82222712938827
HST                     
1 20580U 90037B   26178.24823549  .00007152  00000+0  22534-3 0  9998
2 20580  28.4733  11.8084 0001399 264.2756  95.7680 15.30861955790116
SL-16 R/B               
1 20625U 90046B   26178.41046022 -.00000221  00000+0 -89212-4 0  9999
2 20625  70.9999  67.4782 0012674 145.5028 214.6920 14.15026187863915
COSMOS 2084             
1 20663U 90055A   26178.48520508  .00002132  00000+0  15862-3 0  9994
2 20663  62.7909 320.9404 0006157 296.7555  63.2915 15.06157487952851
SL-6 R/B(2)             
1 20666U 90055D   26178.48771558  .00001340  00000+0  10941-3 0  9993
2 20666  62.7809 240.3243 0042348   6.5459 353.6184 15.04032359954709
SL-8 R/B                
1 20775U 90078B   26178.45201744  .00027663  00000+0  78166-3 0  9990
2 20775  82.9008 152.3666 0348038   3.8494 356.5273 14.92818261825652
SL-8 R/B                
1 21088U 91006B   26178.54549435  .00000060  00000+0  44420-4 0  9991
2 21088  82.9425  88.3284 0023875  87.2293  85.9449 13.77506814779194
OKEAN-3                 
1 21397U 91039A   26178.50818624  .00002014  00000+0  13840-3 0  9997
2 21397  82.5164 230.3738 0012848 319.5513  40.4758 15.05371872881550
COSMOS 2151             
1 21422U 91042A   26178.52980226  .00001754  00000+0  13704-3 0  9999
2 21422  82.4965 337.6986 0013453  52.7098 307.5350 15.00466502879664
SL-14 R/B               
1 21423U 91042B   26178.34880157  .00000347  00000+0  40802-4 0  9999
2 21423  82.4936 117.3668 0015610 238.1668 121.8027 14.81908480869316
ERS-1                   
1 21574U 91050A   26178.52142823  .00000284  00000+0  10532-3 0  9992
2 21574  98.7794 199.4720 0030885 235.1664 124.6617 14.39523030831535
ARIANE 40 R/B           
1 21610U 91050F   26178.51974662  .00000263  00000+0  90987-4 0  9996
2 21610  98.1871 226.5340 0004480  99.1604 261.0093 14.42962630834837
INTERCOSMOS 25          
1 21819U 91086A   26178.18141336  .00000835  00000+0  16570-3 0  9993
2 21819  82.6039 243.7621 1483979 240.8117 103.6607 12.12212787509954
SL-8 R/B                
1 21876U 92008B   26178.53502490  .00000151  00000+0  13981-3 0  9996
2 21876  82.9259 186.0935 0034503 185.3693 288.7874 13.75979636724523
SL-8 R/B                
1 21938U 92020B   26178.24914174  .00000060  00000+0  46948-4 0  9992
2 21938  82.9304  72.3838 0029019 354.8490 123.6166 13.75549849716190
USA 81                  
1 21949U 92023A   26178.19442911  .00000155  00000+0  49882-4 0  9991
2 21949  85.0070  68.2317 0002630  76.1909 283.9576 14.32400652110466
COSMOS 2219             
1 22219U 92076A   26178.37680660  .00000284  00000+0  17338-3 0  9998
2 22219  71.0599 148.7703 0017124  26.8578 333.3427 14.14106408733883
SL-16 R/B               
1 22220U 92076B   26178.47979301 -.00000138  00000+0 -44839-4 0  9991
2 22220  71.0013 317.0985 0014996 285.1410 142.3418 14.16875595737387
COSMOS 2221             
1 22236U 92080A   26178.50269394  .00001434  00000+0  12357-3 0  9998
2 22236  82.5031 173.8811 0014218 176.5219 183.6105 14.96558450797219
SL-16 R/B               
1 22285U 92093B   26178.27752156  .00000221  00000+0  13775-3 0  9991
2 22285  71.0206 134.2086 0003433 169.1454 190.9743 14.15461319728661
COSMOS 2228             
1 22286U 92094A   26178.44402021  .00001663  00000+0  13973-3 0  9996
2 22286  82.5180 132.2182 0016081 295.0007  64.9545 14.97621852792482
SL-16 R/B               
1 22566U 93016B   26178.47066031 -.00000174  00000+0 -64958-4 0  9990
2 22566  71.0087 344.6075 0009513 168.8842 191.2493 14.15315602717709
COSMOS 2242             
1 22626U 93024A   26178.47500529  .00001667  00000+0  14266-3 0  9993
2 22626  82.5183 161.6998 0014606 299.0807  60.8952 14.96933317796816
SL-16 R/B               
1 22803U 93059B   26178.30058075  .00000105  00000+0  75615-4 0  9996
2 22803  70.9892 139.9763 0015675  37.1987 323.0220 14.17247427695066
ARIANE 40 R/B           
1 22830U 93061H   26178.47012425  .00000166  00000+0  76606-4 0  9994
2 22830  98.4816 245.1134 0009849 324.5380  35.5149 14.32911694709821
COSMOS 2278             
1 23087U 94023A   26178.50169947 -.00000181  00000+0 -69992-4 0  9993
2 23087  71.0551 305.3445 0010439 231.3383 128.6806 14.14398110660336
SL-16 R/B               
1 23088U 94023B   26178.49886662 -.00000109  00000+0 -31695-4 0  9991
2 23088  70.9985 200.2760 0002035 178.2432 181.8698 14.15027511661624
SL-16 R/B               
1 23343U 94074B   26178.35018652  .00000425  00000+0  63366-4 0  9991
2 23343  97.6988 204.6477 0005646 212.8886 157.7440 14.79510451703465
SL-16 R/B               
1 23405U 94077B   26178.29630924  .00000119  00000+0  85396-4 0  9995
2 23405  70.9829 121.8948 0003490 319.0439  41.0421 14.15577458631749
ARIANE 40+ R/B          
1 23561U 95021B   26178.46846814  .00000244  00000+0  91682-4 0  9998
2 23561  98.4408 248.3948 0007117 163.2848 207.2711 14.39838637635048
SL-16 R/B               
1 23705U 95058B   26178.52056198 -.00000117  00000+0 -35277-4 0  9992
2 23705  71.0229 309.6625 0014415 306.2232  53.7558 14.15511964583392
